IRIDIUM 155             
1 43573U 18061E   22031.90039542  .00000150  00000+0  46430-4 0  9994
2 43573  86.3987   4.2106 0002168  98.9100 261.2342 14.34221137184418
IRIDIUM 154             
1 43574U 18061F   22031.88136753  .00000141  00000+0  43286-4 0  9990
2 43574  86.3991   4.2756 0001990  80.5244 279.6177 14.34220134184463
IRIDIUM 163             
1 43575U 18061G   22031.93212173  .00000142  00000+0  43814-4 0  9996
2 43575  86.3988   4.2186 0002537  81.6190 278.5293 14.34217200184442
IRIDIUM 156             
1 43576U 18061H   22031.90674400  .00000151  00000+0  46689-4 0  9992
2 43576  86.3989   4.2344 0002453  90.8387 269.3090 14.34220228184433
IRIDIUM 164             
1 43577U 18061J   22031.67840074  .00000145  00000+0  44576-4 0  9995
2 43577  86.3989   4.3458 0002160  80.4430 279.7010 14.34215283184443
IRIDIUM 159             
1 43578U 18061K   22031.92577985  .00000151  00000+0  46742-4 0  9996
2 43578  86.3988   4.2129 0002068  82.2308 277.9122 14.34216011184442
IRIDIUM 180             
1 43922U 19002A   22031.78571167  .00000178  00000+0  56631-4 0  9992
2 43922  86.3979 301.1466 0002172  61.9234 298.2182 14.34222755160039
IRIDIUM 176             
1 43923U 19002B   22031.84983665  .00000551  00000+0  83426-4 0  9997
2 43923  86.6113 301.1549 0002097  88.1966 271.9491 14.72257406164234
IRIDIUM 168             
1 43924U 19002C   22031.77938810  .00000172  00000+0  54296-4 0  9994
2 43924  86.3981 301.1815 0001918  76.6274 283.5136 14.34216715160019
IRIDIUM 173             
1 43925U 19002D   22031.83646154  .00000175  00000+0  55266-4 0  9990
2 43925  86.3978 301.1116 0002003  78.5758 281.5662 14.34222196160005
IRIDIUM 169             
1 43926U 19002E   22031.90397889  .00000191  00000+0  55987-4 0  9995
2 43926  86.4258 332.6854 0004257 175.1710 184.9530 14.38606067160581
IRIDIUM 172             
1 43927U 19002F   22031.83011787  .00000166  00000+0  52049-4 0  9996
2 43927  86.3978 301.1173 0002011  75.9339 284.2080 14.34214628160011
IRIDIUM 175             
1 43928U 19002G   22031.77571959  .00000571  00000+0  86598-4 0  9998
2 43928  86.6115 301.0121 0002348  77.9954 282.1527 14.72252435164217
IRIDIUM 171             
1 43929U 19002H   22031.81109124  .00000180  00000+0  57073-4 0  9997
2 43929  86.3987 301.2541 0001892  77.7513 282.3894 14.34219904160006
IRIDIUM 170             
1 43930U 19002J   22031.78808707  .00000567  00000+0  85983-4 0  9998
2 43930  86.6113 301.1864 0002152  83.8156 276.3306 14.72253293164231
IRIDIUM 167             
1 43931U 19002K   22031.80475004  .00000184  00000+0  58565-4 0  9993
2 43931  86.3978 301.1361 0001993  68.7979 291.3429 14.34213975160002
